GLOBALSTAR M001 [-]     
1 25162U 98008A   23241.77667706 -.00000075  00000+0  16800-3 0  9999
2 25162  52.0029  86.5911 0001330 343.3931  98.2782 12.38166766162279
GLOBALSTAR M004 [-]     
1 25163U 98008B   23241.38009197 -.00000060  00000+0  24493-3 0  9992
2 25163  51.9975 260.8751 0002848 267.5223 105.6592 12.63336901178540
GLOBALSTAR M002 [-]     
1 25164U 98008C   23241.76897759 -.00000091  00000+0 -29030-3 0  9991
2 25164  52.0012  88.5475 0002009  37.0561 323.0397 11.61495174107677
GLOBALSTAR M003 [-]     
1 25165U 98008D   23241.61896237  .00000034  00000+0  13190-2 0  9990
2 25165  51.9715 189.8762 0008163  50.3591 120.3145 12.11932719153484
GLOBALSTAR M014 [-]     
1 25306U 98023A   23241.74858468 -.00000070  00000+0  14204-3 0  9991
2 25306  51.9864  25.6399 0000593 168.6457 300.4161 11.65459143114515
GLOBALSTAR M006 [-]     
1 25307U 98023B   23241.65386904 -.00000068  00000+0  15543-3 0  9997
2 25307  51.9947  53.7775 0003804  19.0885  60.5708 11.58153222140645
GLOBALSTAR M015 [-]     
1 25308U 98023C   23241.81115774 -.00000069  00000+0  91481-4 0  9998
2 25308  51.9810 121.7427 0012743 351.2931  84.3973 11.48848938118524
GLOBALSTAR M008 [-]     
1 25309U 98023D   23241.65843421 -.00000048  00000+0  38025-3 0  9999
2 25309  51.9976 304.3274 0002461 219.0113 277.4910 12.36026559156530
